NORAD_CAT_ID,OBJECT_NAME,OBJECT_TYPE,EPOCH,MEAN_MOTION,ECCENTRICITY,INCLINATION,RA_OF_ASC_NODE,ARG_OF_PERICENTER,MEAN_ANOMALY,BSTAR,MEAN_MOTION_DOT,MEAN_MOTION_DDOT,TLE_LINE0,TLE_LINE1,TLE_LINE2,SEMIMAJOR_AXIS,PERIOD,APOGEE,PERIGEE,DECAYED
52103.0,STARLINK-3705,PAYLOAD,2022-11-03 13:47:01,15.08832472,0.0001571999999999,53.2153,165.4011,62.8385,297.2768,0.00019916,2.882e-05,0.0,0 STARLINK-3705,1 52103U 22029R   22307.57432492  .00002882  00000-0  19916-3 0  9995,2 52103  53.2153 165.4011 0001572  62.8385 297.2768 15.08832472 36287,6917.903,95.438,540.856,538.681,0.0
52103.0,STARLINK-3705,PAYLOAD,2022-11-03 15:22:24,15.08836768,0.0001794,53.2172,165.1071,43.4154,316.6979,4.845e-05,4.83e-06,0.0,0 STARLINK-3705,1 52103U 22029R   22307.64056408  .00000483  00000-0  48450-4 0  9993,2 52103  53.2172 165.1071 0001794  43.4154 316.6979 15.08836768 36299,6917.89,95.438,540.996,538.514,0.0
52103.0,STARLINK-3705,PAYLOAD,2022-11-04 00:54:42,15.08857853,0.0001882,53.215,163.3198,57.7125,302.4049,8.5016e-05,1.066e-05,0.0,0 STARLINK-3705,1 52103U 22029R   22308.03798736  .00001066  00000-0  85016-4 0  9991,2 52103  53.2150 163.3198 0001882  57.7125 302.4049 15.08857853 36355,6917.826,95.436,540.993,538.389,0.0
52103.0,STARLINK-3705,PAYLOAD,2022-11-04 13:37:46,15.08878243,0.0001967,53.2147,160.9413,51.0087,309.108,-0.00037846,-6.313e-05,0.0,0 STARLINK-3705,1 52103U 22029R   22308.56789638 -.00006313  00000-0 -37846-3 0  9999,2 52103  53.2147 160.9413 0001967  51.0087 309.1080 15.08878243 36436,6917.763000000001,95.435,540.989,538.268,0.0
52103.0,STARLINK-3705,PAYLOAD,2022-11-04 16:48:34,15.08840401,0.0001689,53.2149,160.3464,51.8465,308.2679,0.00015723,2.215e-05,0.0,0 STARLINK-3705,1 52103U 22029R   22308.70039732  .00002215  00000-0  15723-3 0  9993,2 52103  53.2149 160.3464 0001689  51.8465 308.2679 15.08840401 36458,6917.879,95.438,540.913,538.576,0.0
52103.0,STARLINK-3705,PAYLOAD,2022-11-05 07:07:02,15.08845243,0.0002008,53.2141,157.6699,58.6332,301.4857,3.0016e-05,1.9e-06,0.0,0 STARLINK-3705,1 52103U 22029R   22309.29655312  .00000190  00000-0  30016-4 0  9999,2 52103  53.2141 157.6699 0002008  58.6332 301.4857 15.08845243 36545,6917.864000000001,95.437,541.118,538.34,0.0
52103.0,STARLINK-3705,PAYLOAD,2022-11-05 18:14:45,15.08826033,0.0001769,53.2153,155.5881,58.8337,301.2828,-0.0002752,-4.664e-05,0.0,0 STARLINK-3705,1 52103U 22029R   22309.76024505 -.00004664  00000-0 -27520-3 0  9992,2 52103  53.2153 155.5881 0001769  58.8337 301.2828 15.08826033 36618,6917.9230000000025,95.438,541.012,538.564,0.0
52103.0,STARLINK-3705,PAYLOAD,2022-11-06 06:57:51,15.08826566,0.0001877,53.216,153.2088,55.3614,304.7554,-0.00013468,-2.43e-05,0.0,0 STARLINK-3705,1 52103U 22029R   22310.29017811 -.00002430  00000-0 -13468-3 0  9999,2 52103  53.2160 153.2088 0001877  55.3614 304.7554 15.08826566 36693,6917.920999999999,95.438,541.085,538.488,0.0
52103.0,STARLINK-3705,PAYLOAD,2022-11-06 19:40:56,15.08825477,0.0001726,53.2158,150.8302,54.4613,305.654,-2.7653e-05,-7.28e-06,0.0,0 STARLINK-3705,1 52103U 22029R   22310.82009963 -.00000728  00000-0 -27653-4 0  9997,2 52103  53.2158 150.8302 0001726  54.4613 305.6540 15.08825477 36778,6917.925,95.438,540.984,538.596,0.0
52103.0,STARLINK-3705,PAYLOAD,2022-11-07 21:07:06,15.08827525,0.0001735,53.2159,146.0725,51.8377,308.2771,0.00020646,2.998e-05,0.0,0 STARLINK-3705,1 52103U 22029R   22311.87994106  .00002998  00000-0  20646-3 0  9998,2 52103  53.2159 146.0725 0001735  51.8377 308.2771 15.08827525 36932,6917.919,95.438,540.984,538.5830000000002,0.0
52103.0,STARLINK-3705,PAYLOAD,2022-11-08 00:17:53,15.0883093,0.0001743,53.2159,145.4777,52.3971,307.7179,0.00023467,3.448e-05,0.0,0 STARLINK-3705,1 52103U 22029R   22312.01242012  .00003448  00000-0  23467-3 0  9992,2 52103  53.2159 145.4777 0001743  52.3971 307.7179 15.08830930 36959,6917.908,95.438,540.979,538.567,0.0
52103.0,STARLINK-3705,PAYLOAD,2022-11-08 06:39:25,15.08832749,0.0001759,53.2159,144.2884,52.3717,307.7435,0.0002125,3.095e-05,0.0,0 STARLINK-3705,1 52103U 22029R   22312.27738084  .00003095  00000-0  21250-3 0  9995,2 52103  53.2159 144.2884 0001759  52.3717 307.7435 15.08832749 36999,6917.903,95.438,540.984,538.5509999999998,0.0
52103.0,STARLINK-3705,PAYLOAD,2022-11-08 19:22:30,15.08846979,0.0001764999999999,53.216,141.9094,52.9156,307.1997,0.0002607,3.864e-05,0.0,0 STARLINK-3705,1 52103U 22029R   22312.80729204  .00003864  00000-0  26070-3 0  9997,2 52103  53.2160 141.9094 0001765  52.9156 307.1997 15.08846979 37075,6917.859,95.437,540.945,538.503,0.0
52103.0,STARLINK-3705,PAYLOAD,2022-11-09 12:51:44,15.08851347,0.0001779,53.2158,138.6381,53.7131,306.4025,0.00019537,2.824e-05,0.0,0 STARLINK-3705,1 52103U 22029R   22313.53592804  .00002824  00000-0  19537-3 0  9997,2 52103  53.2158 138.6381 0001779  53.7131 306.4025 15.08851347 37182,6917.846,95.437,540.941,538.48,0.0
52103.0,STARLINK-3705,PAYLOAD,2022-11-09 19:13:17,15.08838054,0.0001648,53.2159,137.4488,50.7924,309.3215,9.8999e-06,-1.3e-06,0.0,0 STARLINK-3705,1 52103U 22029R   22313.80089975 -.00000130  00000-0  98999-5 0  9997,2 52103  53.2159 137.4488 0001648  50.7924 309.3215 15.08838054 37228,6917.886,95.438,540.891,538.611,0.0
52103.0,STARLINK-3705,PAYLOAD,2022-11-10 12:42:31,15.08842129,0.0001448,53.2143,134.1769,51.0446,309.0675,-6.814399999999999e-05,-1.372e-05,0.0,0 STARLINK-3705,1 52103U 22029R   22314.52953068 -.00001372  00000-0 -68144-4 0  9998,2 52103  53.2143 134.1769 0001448  51.0446 309.0675 15.08842129 37335,6917.874,95.437,540.741,538.737,0.0
52103.0,STARLINK-3705,PAYLOAD,2022-11-10 17:28:39,15.08912978,0.00013,53.2161,133.2853,57.3841,302.7277,-0.00098852,-0.00016017,0.0,0 STARLINK-3705,1 52103U 22029R   22314.72824066 -.00016017  00000-0 -98852-3 0  9995,2 52103  53.2161 133.2853 0001300  57.3841 302.7277 15.08912978 37365,6917.656999999997,95.433,540.422,538.623,0.0
52103.0,STARLINK-3705,PAYLOAD,2022-11-10 19:04:02,15.08880477,0.0001491,53.2151,132.9877,55.1577,304.9555,-0.0010431,-0.00016869,0.0,0 STARLINK-3705,1 52103U 22029R   22314.79447263 -.00016869  00000-0 -10431-2 0  9993,2 52103  53.2151 132.9877 0001491  55.1577 304.9555 15.08880477 37371,6917.757,95.435,540.653,538.59,0.0
52103.0,STARLINK-3705,PAYLOAD,2022-11-10 22:14:49,15.08855005,0.0002067,53.215,132.3929,66.2084,293.9125,-0.00030874,-5.201e-05,0.0,0 STARLINK-3705,1 52103U 22029R   22314.92696412 -.00005201  00000-0 -30874-3 0  9992,2 52103  53.2150 132.3929 0002067  66.2084 293.9125 15.08855005 37399,6917.835,95.437,541.129,538.27,0.0
52103.0,STARLINK-3705,PAYLOAD,2022-11-11 10:57:55,15.0884209,0.0001705,53.2152,130.014,49.2888,310.8252,0.00018909,2.723e-05,0.0,0 STARLINK-3705,1 52103U 22029R   22315.45688858  .00002723  00000-0  18909-3 0  9995,2 52103  53.2152 130.0140 0001705  49.2888 310.8252 15.08842090 37471,6917.874,95.437,540.918,538.56,0.0
52103.0,STARLINK-3705,PAYLOAD,2022-11-11 18:54:50,15.088470499999998,0.0001728,53.2153,128.5272,49.7955,310.3188,0.00022736,3.333e-05,0.0,0 STARLINK-3705,1 52103U 22029R   22315.78808569  .00003333  00000-0  22736-3 0  9995,2 52103  53.2153 128.5272 0001728  49.7955 310.3188 15.08847050 37525,6917.859,95.437,540.919,538.528,0.0
52103.0,STARLINK-3705,PAYLOAD,2022-11-12 12:24:04,15.08849483,0.0002181,53.2161,125.2562,58.6632,301.4573,0.0001473,2.057e-05,0.0,0 STARLINK-3705,1 52103U 22029R   22316.51672266  .00002057  00000-0  14730-3 0  9997,2 52103  53.2161 125.2562 0002181  58.6632 301.4573 15.08849483 37638,6917.851,95.437,541.225,538.2080000000002,0.0
52103.0,STARLINK-3705,PAYLOAD,2022-11-12 18:45:37,15.08845242,0.0001771,53.2166,124.0671,49.197,310.9175,-6.5064e-05,-1.324e-05,0.0,0 STARLINK-3705,1 52103U 22029R   22316.78168248 -.00001324  00000-0 -65064-4 0  9991,2 52103  53.2166 124.0671 0001771  49.1970 310.9175 15.08845242 37671,6917.864000000001,95.437,540.955,538.504,0.0
52103.0,STARLINK-3705,PAYLOAD,2022-11-12 20:21:00,15.08842729,0.000187,53.2162,123.7696,50.9226,309.1932,1.7317e-05,-1.3e-07,0.0,0 STARLINK-3705,1 52103U 22029R   22316.84792376 -.00000013  00000-0  17317-4 0  9994,2 52103  53.2162 123.7696 0001870  50.9226 309.1932 15.08842729 37683,6917.871999999999,95.437,541.031,538.443,0.0
52103.0,STARLINK-3705,PAYLOAD,2022-11-13 12:14:51,15.08844494,0.0001758,53.2158,120.7948,49.3963,310.7182,-2.5618e-05,-6.96e-06,0.0,0 STARLINK-3705,1 52103U 22029R   22317.51032113 -.00000696  00000-0 -25618-4 0  9996,2 52103  53.2158 120.7948 0001758  49.3963 310.7182 15.08844494 37787,6917.8669999999975,95.437,540.948,538.515,0.0
52103.0,STARLINK-3705,PAYLOAD,2022-11-13 18:36:24,15.08840231,0.0001738,53.2164,119.6057,50.604,309.5106,-2.7529e-05,-7.26e-06,0.0,0 STARLINK-3705,1 52103U 22029R   22317.77528857 -.00000726  00000-0 -27529-4 0  9996,2 52103  53.2164 119.6057 0001738  50.6040 309.5106 15.08840231 37823,6917.88,95.438,540.947,538.5419999999998,0.0
52103.0,STARLINK-3705,PAYLOAD,2022-11-14 10:30:15,15.08854301,0.0001874,53.2165,116.632,49.854,310.2616,-0.00020563,-3.561e-05,0.0,0 STARLINK-3705,1 52103U 22029R   22318.43768083 -.00003561  00000-0 -20563-3 0  9997,2 52103  53.2165 116.6320 0001874  49.8540 310.2616 15.08854301 37929,6917.837,95.437,540.998,538.405,0.0
52103.0,STARLINK-3705,PAYLOAD,2022-11-14 16:51:48,15.088428699999998,0.0001739,53.2162,115.4424,50.8956,309.2191,7.5799e-05,9.19e-06,0.0,0 STARLINK-3705,1 52103U 22029R   22318.70264346  .00000919  00000-0  75799-4 0  9994,2 52103  53.2162 115.4424 0001739  50.8956 309.2191 15.08842870 37969,6917.871999999999,95.437,540.94,538.534,0.0
52103.0,STARLINK-3705,PAYLOAD,2022-11-15 10:21:03,15.08837076,0.0001925,53.2171,112.1717,56.7668,303.3509,0.00011084,1.476e-05,0.0,0 STARLINK-3705,1 52103U 22029R   22319.43128477  .00001476  00000-0  11084-3 0  9994,2 52103  53.2171 112.1717 0001925  56.7668 303.3509 15.08837076 38073,6917.889,95.438,541.086,538.423,0.0
